[{"OBJECT_NAME":"OSCAR 31","OBJECT_ID":"1988-074B","EPOCH":"2026-03-03T18:44:40.402752","MEAN_MOTION":13.42596747,"ECCENTRICITY":0.0094874,"INCLINATION":90.0425,"RA_OF_ASC_NODE":20.8804,"ARG_OF_PERICENTER":10.5651,"MEAN_ANOMALY":53.4498,"EPHEMERIS_TYPE":0,"CLASSIFICATION_TYPE":"U","NORAD_CAT_ID":19420,"ELEMENT_SET_NO":999,"REV_AT_EPOCH":83738,"BSTAR":0.00013831,"MEAN_MOTION_DOT":8.9e-7,"MEAN_MOTION_DDOT":0}]
