OSCAR 31                
1 19420U 88074B   26062.78102318  .00000089  00000+0  13831-3 0  9994
2 19420  90.0425  20.8804 0094874  10.5651  53.4498 13.42596747837380
